ONEWEB-0369             
1 49295U 21090S   24062.54365982  .00000037  00000+0  58993-4 0  9994
2 49295  87.9140 111.5149 0002045  92.4653 267.6714 13.19725524116068
ONEWEB-0370             
1 49296U 21090T   24062.59029587  .00000042  00000+0  70606-4 0  9999
2 49296  87.9125  80.9386 0001966  92.6693 267.4665 13.20771583119436
ONEWEB-0371             
1 49297U 21090U   24062.62736689  .00000003  00000+0 -25184-4 0  9991
2 49297  87.9140 111.4882 0001902  93.3932 266.7418 13.19726059117408
ONEWEB-0372             
1 49298U 21090V   24062.57910836 -.00000031  00000+0 -10737-3 0  9993
2 49298  87.9127  80.9489 0001952  86.4135 273.7222 13.20772333119401
ONEWEB-0373             
1 49299U 21090W   24062.60607856  .00000082  00000+0  16926-3 0  9993
2 49299  87.9124  80.9612 0002306  92.2525 267.8872 13.20771482120590
ONEWEB-0374             
1 49300U 21090X   24062.58427741 -.00000181  00000+0 -52171-3 0  9990
2 49300  87.8904  96.2144 0002124  93.5112 266.6261 13.14501587117654
ONEWEB-0375             
1 49301U 21090Y   24062.59344971  .00000026  00000+0  32704-4 0  9992
2 49301  87.9125  80.9391 0002396 108.5706 251.5688 13.20771954120094
ONEWEB-0376             
1 49302U 21090Z   24062.70160272  .00000005  00000+0 -19483-4 0  9993
2 49302  87.9134 111.4887 0001986  88.3991 271.7369 13.19726346117404
